{
  "norad_id": 51956,
  "name": "STARLINK-3700",
  "history": [
    {
      "epoch": "2026-03-28T20:02:16.275840",
      "apogee_km": 477.214633679655,
      "perigee_km": 475.4338446497204,
      "latitude_deg": -5.058267010117824,
      "longitude_deg": 175.7514176000841,
      "semi_major_axis_km": 6854.461239164688,
      "eccentricity": 0.0001299,
      "inclination_deg": 53.1616,
      "raan_deg": 284.6195,
      "arg_perigee_deg": 100.8317,
      "mean_anomaly_deg": 259.283,
      "mean_motion_rev_day": 15.29828596
    }
  ]
}